SCD 1                   
1 22490U 93009B   26159.63347221  .00000400  00000+0  58531-4 0  9998
2 22490  24.9692 260.3930 0042120  47.6918 149.4505 14.46116071759873
TECHSAT 1B (GO-32)      
1 25397U 98043D   26159.70546889  .00000072  00000+0  51506-4 0  9999
2 25397  99.0065 152.2503 0000575 185.5872 174.5300 14.24426807450128
SCD 2                   
1 25504U 98060A   26159.62444714  .00000410  00000+0  63621-4 0  9990
2 25504  24.9939 124.9637 0016863  33.5457 129.9669 14.45522594459086
DLR-TUBSAT              
1 25757U 99029B   26159.75103828  .00000112  00000+0  39369-4 0  9999
2 25757  98.6694 154.9775 0014585  20.5114 339.6663 14.52424747432021
TERRA                   
1 25994U 99068A   26159.81335137  .00000378  00000+0  85954-4 0  9997
2 25994  97.9459 209.6913 0000972 228.7766 264.5397 14.61096572408380
AQUA                    
1 27424U 02022A   26159.84131861  .00000795  00000+0  16788-3 0  9993
2 27424  98.4272 128.9577 0001436  54.4030   1.9331 14.62145663282054
SHIYAN-1 (SY-1)         
1 28220U 04012A   26159.76697073  .00014026  00000+0  43461-3 0  9992
2 28220  97.8687 237.2897 0006289  59.7462 300.4401 15.33546925209801
AURA                    
1 28376U 04026A   26159.76950469  .00000870  00000+0  18586-3 0  9992
2 28376  98.3413 116.1534 0001319  71.4464 288.6880 14.61317003164981
IRS-P5 (CARTOSAT-1)     
1 28649U 05017A   26159.82389192  .00001428  00000+0  14966-3 0  9990
2 28649  97.5309 183.2679 0002636  90.8416 269.3105 14.91027786142575
SINAH 1                 
1 28893U 05043D   26159.78509892  .00000358  00000+0  77480-4 0  9998
2 28893  98.2850 294.0582 0013314 305.6085  54.3876 14.64152373 99291
RESURS-DK 1             
1 29228U 06021A   26159.83846485  .00002391  00000+0  14051-3 0  9999
2 29228  69.9339   1.1642 0006500 298.4853  61.5658 15.13180390101316
ARIRANG-2 (KOMPSAT-2)   
1 29268U 06031A   26159.83358549  .00000195  00000+0  45032-4 0  9997
2 29268  97.8313 344.6846 0015876  98.4358  25.7752 14.64654677 60250
LAPAN-TUBSAT            
1 29709U 07001A   26159.83706978  .00001066  00000+0  12863-3 0  9991
2 29709  98.1348 158.8733 0011207 207.3522 152.7104 14.85944900 49916
HAIYANG-1B              
1 31113U 07010A   26159.82429785  .00000095  00000+0  51989-4 0  9994
2 31113  98.3490 141.9940 0012546 222.4295 137.5919 14.31024821999431
COSMO-SKYMED 1          
1 31598U 07023A   26159.84709270  .00002133  00000+0  19031-3 0  9993
2 31598  97.8857 351.6339 0001109  81.3643 278.7704 14.97062549 28549
WORLDVIEW-1 (WV-1)      
1 32060U 07041A   26159.82330814  .00006017  00000+0  25000-3 0  9998
2 32060  97.3862 279.6886 0003011  44.2155 315.9323 15.24174401 41606
YAOGAN-3                
1 32289U 07055A   26159.87147347  .00000658  00000+0  72701-4 0  9994
2 32289  97.8160 189.8317 0001818  88.0718 272.0708 14.90746130  4638
COSMO-SKYMED 2          
1 32376U 07059A   26159.85723332  .00000465  00000+0  65023-4 0  9992
2 32376  97.8885 343.5762 0001427  84.5095 275.6281 14.82148194   770
RADARSAT-2              
1 32382U 07061A   26159.85122194  .00000071  00000+0  44589-4 0  9998
2 32382  98.5783 166.9029 0001318  81.8792 278.2540 14.29983096964762
CARTOSAT-2A             
1 32783U 08021A   26159.86160417  .00000689  00000+0  99379-4 0  9993
2 32783  97.7636 208.8545 0012721 133.1866 227.0411 14.79226733977572
HUANJING 1A (HJ-1A)     
1 33320U 08041A   26159.87267251  .00001222  00000+0  15258-3 0  9995
2 33320  97.6686 146.0331 0019234 160.8911 199.3030 14.83969104957177
HUANJING 1B (HJ-1B)     
1 33321U 08041B   26159.83798851  .00000369  00000+0  51001-4 0  9995
2 33321  97.6522 149.1964 0035260 208.9413 150.9847 14.83301117957174
GEOEYE 1                
1 33331U 08042A   26159.81770941  .00000456  00000+0  94606-4 0  9990
2 33331  98.1235 233.8548 0005571  89.5336 270.6505 14.64718131948921
THEOS                   
1 33396U 08049A   26159.86644075  .00000023  00000+0  30467-4 0  9996
2 33396  98.5570 217.4203 0001280  79.9681 280.1641 14.20131534916787
COSMO-SKYMED 3          
1 33412U 08054A   26159.84293766  .00002006  00000+0  13853-3 0  9998
2 33412  97.8290  18.2755 0014300 298.3034  61.6750 15.06897069955684
YAOGAN-4                
1 33446U 08061A   26159.80165093  .00000996  00000+0  12835-3 0  9995
2 33446  97.9306  93.3740 0015735  97.1964 263.1039 14.83184368944422
GOSAT (IBUKI)           
1 33492U 09002A   26159.54740720  .00000040  00000+0  15601-4 0  9994
2 33492  98.0883 270.7372 0001593  91.7157 268.4230 14.67539457930193
DEIMOS-1                
1 35681U 09041A   26159.84362787  .00000524  00000+0  84484-4 0  9997
2 35681  97.7399 317.4339 0001064 137.6242 222.5050 14.75229096905651
DUBAISAT-1              
1 35682U 09041B   26159.81353529  .00000803  00000+0  12644-3 0  9997
2 35682  98.0043 293.1639 0011750  97.4447 262.8097 14.75110918903869
