OBJECT_NAME,OBJECT_ID,EPOCH,MEAN_MOTION,ECCENTRICITY,INCLINATION,RA_OF_ASC_NODE,ARG_OF_PERICENTER,MEAN_ANOMALY,EPHEMERIS_TYPE,CLASSIFICATION_TYPE,NORAD_CAT_ID,ELEMENT_SET_NO,REV_AT_EPOCH,BSTAR,MEAN_MOTION_DOT,MEAN_MOTION_DDOT
SCD 1,1993-009B,2026-06-08T15:12:11.998944,14.46116071,.004212,24.9692,260.3930,47.6918,149.4505,0,U,22490,999,75987,.58531E-4,.4E-5,0
TECHSAT 1B (GO-32),1998-043D,2026-06-08T16:55:52.512096,14.24426807,.0000575,99.0065,152.2503,185.5872,174.5300,0,U,25397,999,45012,.51506E-4,.72E-6,0
SCD 2,1998-060A,2026-06-08T14:59:12.232896,14.45522594,.0016863,24.9939,124.9637,33.5457,129.9669,0,U,25504,999,45908,.63621E-4,.41E-5,0
DLR-TUBSAT,1999-029B,2026-06-08T18:01:29.707392,14.52424747,.0014585,98.6694,154.9775,20.5114,339.6663,0,U,25757,999,43202,.39369E-4,.112E-5,0
TERRA,1999-068A,2026-06-08T19:31:13.558368,14.61096572,.0000972,97.9459,209.6913,228.7766,264.5397,0,U,25994,999,40838,.85954E-4,.378E-5,0
AQUA,2002-022A,2026-06-08T20:11:29.927904,14.62145663,.0001436,98.4272,128.9577,54.4030,1.9331,0,U,27424,999,28205,.16788E-3,.795E-5,0
SHIYAN-1 (SY-1),2004-012A,2026-06-08T18:24:26.271072,15.33546925,.0006289,97.8687,237.2897,59.7462,300.4401,0,U,28220,999,20980,.43461E-3,.14026E-3,0
AURA,2004-026A,2026-06-08T18:28:05.205216,14.61317003,.0001319,98.3413,116.1534,71.4464,288.6880,0,U,28376,999,16498,.18586E-3,.87E-5,0
IRS-P5 (CARTOSAT-1),2005-017A,2026-06-08T19:46:24.261888,14.91027786,.0002636,97.5309,183.2679,90.8416,269.3105,0,U,28649,999,14257,.14966E-3,.1428E-4,0
SINAH 1,2005-043D,2026-06-08T18:50:32.546688,14.64152373,.0013314,98.2850,294.0582,305.6085,54.3876,0,U,28893,999,9929,.7748E-4,.358E-5,0
RESURS-DK 1,2006-021A,2026-06-08T20:07:23.363040,15.13180390,.00065,69.9339,1.1642,298.4853,61.5658,0,U,29228,999,10131,.14051E-3,.2391E-4,0
ARIRANG-2 (KOMPSAT-2),2006-031A,2026-06-08T20:00:21.786336,14.64654677,.0015876,97.8313,344.6846,98.4358,25.7752,0,U,29268,999,6025,.45032E-4,.195E-5,0
LAPAN-TUBSAT,2007-001A,2026-06-08T20:05:22.828992,14.85944900,.0011207,98.1348,158.8733,207.3522,152.7104,0,U,29709,999,4991,.12863E-3,.1066E-4,0
HAIYANG-1B,2007-010A,2026-06-08T19:46:59.334240,14.31024821,.0012546,98.3490,141.9940,222.4295,137.5919,0,U,31113,999,99943,.51989E-4,.95E-6,0
COSMO-SKYMED 1,2007-023A,2026-06-08T20:19:48.809280,14.97062549,.0001109,97.8857,351.6339,81.3643,278.7704,0,U,31598,999,2854,.19031E-3,.2133E-4,0
WORLDVIEW-1 (WV-1),2007-041A,2026-06-08T19:45:33.823296,15.24174401,.0003011,97.3862,279.6886,44.2155,315.9323,0,U,32060,999,4160,.25E-3,.6017E-4,0
YAOGAN-3,2007-055A,2026-06-08T20:54:55.307808,14.90746130,.0001818,97.8160,189.8317,88.0718,272.0708,0,U,32289,999,463,.72701E-4,.658E-5,0
COSMO-SKYMED 2,2007-059A,2026-06-08T20:34:24.958848,14.82148194,.0001427,97.8885,343.5762,84.5095,275.6281,0,U,32376,999,77,.65023E-4,.465E-5,0
RADARSAT-2,2007-061A,2026-06-08T20:25:45.575616,14.29983096,.0001318,98.5783,166.9029,81.8792,278.2540,0,U,32382,999,96476,.44589E-4,.71E-6,0
CARTOSAT-2A,2008-021A,2026-06-08T20:40:42.600288,14.79226733,.0012721,97.7636,208.8545,133.1866,227.0411,0,U,32783,999,97757,.99379E-4,.689E-5,0
HUANJING 1A (HJ-1A),2008-041A,2026-06-08T20:56:38.904864,14.83969104,.0019234,97.6686,146.0331,160.8911,199.3030,0,U,33320,999,95717,.15258E-3,.1222E-4,0
HUANJING 1B (HJ-1B),2008-041B,2026-06-08T20:06:42.207264,14.83301117,.003526,97.6522,149.1964,208.9413,150.9847,0,U,33321,999,95717,.51001E-4,.369E-5,0
GEOEYE 1,2008-042A,2026-06-08T19:37:30.093024,14.64718131,.0005571,98.1235,233.8548,89.5336,270.6505,0,U,33331,999,94892,.94606E-4,.456E-5,0
THEOS,2008-049A,2026-06-08T20:47:40.480800,14.20131534,.000128,98.5570,217.4203,79.9681,280.1641,0,U,33396,999,91678,.30467E-4,.23E-6,0
COSMO-SKYMED 3,2008-054A,2026-06-08T20:13:49.813824,15.06897069,.00143,97.8290,18.2755,298.3034,61.6750,0,U,33412,999,95568,.13853E-3,.2006E-4,0
YAOGAN-4,2008-061A,2026-06-08T19:14:22.640352,14.83184368,.0015735,97.9306,93.3740,97.1964,263.1039,0,U,33446,999,94442,.12835E-3,.996E-5,0
GOSAT (IBUKI),2009-002A,2026-06-08T13:08:15.982080,14.67539457,.0001593,98.0883,270.7372,91.7157,268.4230,0,U,33492,999,93019,.15601E-4,.4E-6,0
DEIMOS-1,2009-041A,2026-06-08T20:14:49.447968,14.75229096,.0001064,97.7399,317.4339,137.6242,222.5050,0,U,35681,999,90565,.84484E-4,.524E-5,0
DUBAISAT-1,2009-041B,2026-06-08T19:31:29.449056,14.75110918,.001175,98.0043,293.1639,97.4447,262.8097,0,U,35682,999,90386,.12644E-3,.803E-5,0
